STARLINK-37643          
1 69449U 26127G   26179.52740176  .00114601  00000+0  74064-3 0  9993
2 69449  53.1593 205.9511 0001027 102.1800 257.9335 15.75271054  3199
STARLINK-37601          
1 69450U 26127H   26179.52707631  .00078167  00000+0  50909-3 0  9992
2 69450  53.1594 205.9487 0001624  68.8676 291.2517 15.75251918  3196
STARLINK-37578          
1 69451U 26127J   26179.51345872  .00131958  00000+0  85045-3 0  9994
2 69451  53.1570 205.8578 0001003  95.6794 264.4341 15.75270525  3193
STARLINK-37577          
1 69452U 26127K   26179.58334491 -.00029658  00000+0 -18988-3 0  9994
2 69452  53.1585 205.3540 0001043  75.9233  38.0013 15.75249941  4478
STARLINK-37500          
1 69453U 26127L   26179.50924785  .00115420  00000+0  74600-3 0  9992
2 69453  53.1573 205.8301 0001044  83.9921 276.1218 15.75265911  3195
STARLINK-37575          
1 69454U 26127M   26179.58334491 -.00012582  00000+0 -78023-4 0  9991
2 69454  53.1586 205.3048 0001126  65.4872  72.3283 15.75240558  4474
STARLINK-37642          
1 69455U 26127N   26179.57723134  .00109083  00000+0  70556-3 0  9990
2 69455  53.1570 205.5438 0001087  98.4853 261.6291 15.75273682  3200
STARLINK-37513          
1 69456U 26127P   26179.54196604  .00209489  00000+0  10357-2 0  9997
2 69456  53.1564 205.3074 0001482  75.5400 284.5787 15.80950240  3203
STARLINK-37563          
1 69457U 26127Q   26179.56361566  .00089172  00000+0  57902-3 0  9994
2 69457  53.1587 205.4531 0001189  84.1294 275.9861 15.75268167  3200
STARLINK-37565          
1 69458U 26127R   26179.58334491 -.00028942  00000+0 -18520-3 0  9997
2 69458  53.1581 205.2461 0001019  69.1862  96.2465 15.75247858  4479
STARLINK-37498          
1 69459U 26127S   26179.50891676  .00147915  00000+0  95020-3 0  9993
2 69459  53.1567 205.8253 0001052 113.3196 246.7935 15.75289674  3192
STARLINK-37384          
1 69460U 26127T   26179.55874771  .00082659  00000+0  53755-3 0  9999
2 69460  53.1589 205.4201 0001044  77.4697 282.6440 15.75264075  3204
STARLINK-37707          
1 69461U 26127U   26179.55453689  .00171427  00000+0  10972-2 0  9996
2 69461  53.1587 205.3906 0001108  79.2364 280.8781 15.75295706  3209
STARLINK-37525          
1 69462U 26127V   26179.58334491 -.00031107  00000+0 -19940-3 0  9996
2 69462  53.1581 205.1925 0001070  65.7517 125.4326 15.75250052  4475
STARLINK-37526          
1 69463U 26127W   26179.58334491 -.00020882  00000+0 -13231-3 0  9992
2 69463  53.1577 205.1435 0001047  84.2503 130.8155 15.75252672  4472
STARLINK-37574          
1 69464U 26127X   26179.54999894  .00093391  00000+0  60616-3 0  9995
2 69464  53.1581 205.3595 0001049  93.6357 266.4783 15.75259033  3201
STARLINK-37535          
1 69465U 26127Y   26179.54513154  .00142512  00000+0  91651-3 0  9990
2 69465  53.1575 205.3267 0001117  84.8116 275.3032 15.75282764  3205
STARLINK-37583          
1 69466U 26127Z   26179.58334491  .00071209  00000+0  46680-3 0  9996
2 69466  53.1585 204.8242 0001828  76.7142 292.8876 15.75139017  4474
STARLINK-37546          
1 69467U 26127AA  26179.54092172  .00082636  00000+0  53766-3 0  9999
2 69467  53.1573 205.2959 0001186  80.0320 280.0834 15.75252725  3200
STARLINK-37532          
1 69468U 26127AB  26179.57794026  .00199876  00000+0  98868-3 0  9997
2 69468  53.1570 204.8047 0001010 134.3875 225.7231 15.80966410  3212
STARLINK-37708          
1 69469U 26127AC  26179.54059170  .00093459  00000+0  60651-3 0  9998
2 69469  53.1571 205.2927 0001083  81.0912 279.0231 15.75262299  3205
STARLINK-37686          
1 69470U 26127AD  26179.53638291  .00066481  00000+0  43416-3 0  9991
2 69470  53.1580 205.2656 0001218  88.1933 271.9227 15.75254294  3209
STARLINK-37451          
1 69471U 26127AE  26179.50932918  .00269250  00000+0  13195-2 0  9991
2 69471  53.1571 205.0847 0001101 118.4874 241.6260 15.80973408  3204
DTC TEST OBJECT A       
1 69472U 26128A   26179.60174902  .00022832  00000+0  32362-3 0  9996
2 69472  54.9931 252.2770 0010063 329.5277  30.5173 15.56381195  3007
DTC TEST OBJECT B       
1 69473U 26128B   26178.37654890  .00024134  00000+0  33565-3 0  9992
2 69473  55.0021 257.9040 0009934 325.3113  34.7274 15.56860342  2801
TJS-25                  
1 69474U 26129A   26179.66082516 -.00000355  00000+0  00000+0 0  9991
2 69474   5.9722 330.2730 0002212 296.7801   7.8586  1.00272763   175
STARLINK-37816          
1 69478U 26131A   26179.58277947  .00188210  00000+0  96096-3 0  9993
2 69478  97.2827 200.5211 0003180  79.2280 280.9346 15.80842324  3969
STARLINK-37878          
1 69479U 26131B   26179.58838311  .00138882  00000+0  71243-3 0  9999
2 69479  97.2836 200.5142 0001460 109.9235 250.2190 15.80873762  3960
STARLINK-37817          
1 69480U 26131C   26179.01155800  .00316206  00000+0  15832-2 0  9993
2 69480  97.2838 199.9216 0001381 152.6232 207.5109 15.80943288  3877
STARLINK-37727          
1 69481U 26131D   26179.58052742  .00212117  00000+0  10805-2 0  9998
2 69481  97.2827 200.5234 0004002  59.7104 300.4560 15.80828885  3962
