OBJECT_NAME,OBJECT_ID,EPOCH,MEAN_MOTION,ECCENTRICITY,INCLINATION,RA_OF_ASC_NODE,ARG_OF_PERICENTER,MEAN_ANOMALY,EPHEMERIS_TYPE,CLASSIFICATION_TYPE,NORAD_CAT_ID,ELEMENT_SET_NO,REV_AT_EPOCH,BSTAR,MEAN_MOTION_DOT,MEAN_MOTION_DDOT
STARLINK-37643,2026-127G,2026-06-28T12:39:27.512064,15.75271054,.00010279,53.1593,205.9511,102.1800,257.9335,0,U,69449,999,319,.74064254E-3,.114601E-2,0
STARLINK-37601,2026-127H,2026-06-28T12:38:59.393184,15.75251918,.00016246,53.1594,205.9487,68.8676,291.2517,0,U,69450,999,319,.50909146E-3,.78167E-3,0
STARLINK-37578,2026-127J,2026-06-28T12:19:22.833408,15.75270525,.00010037,53.1570,205.8578,95.6794,264.4341,0,U,69451,999,319,.85045215E-3,.131958E-2,0
STARLINK-37577,2026-127K,2026-06-28T14:00:01.000224,15.75249941,.00010432,53.1585,205.3540,75.9233,38.0013,0,U,69452,999,447,-.18988448E-3,-.29658E-3,0
STARLINK-37500,2026-127L,2026-06-28T12:13:19.014240,15.75265911,.00010444,53.1573,205.8301,83.9921,276.1218,0,U,69453,999,319,.74599959E-3,.11542E-2,0
STARLINK-37575,2026-127M,2026-06-28T14:00:01.000224,15.75240558,.0001126,53.1586,205.3048,65.4872,72.3283,0,U,69454,999,447,-.78022606E-4,-.12582E-3,0
STARLINK-37642,2026-127N,2026-06-28T13:51:12.787776,15.75273682,.00010872,53.1570,205.5438,98.4853,261.6291,0,U,69455,999,320,.70555605E-3,.109083E-2,0
STARLINK-37513,2026-127P,2026-06-28T13:00:25.865856,15.80950240,.00014828,53.1564,205.3074,75.5400,284.5787,0,U,69456,999,320,.10356699E-2,.209489E-2,0
STARLINK-37563,2026-127Q,2026-06-28T13:31:36.393024,15.75268167,.00011897,53.1587,205.4531,84.1294,275.9861,0,U,69457,999,320,.57902307E-3,.89172E-3,0
STARLINK-37565,2026-127R,2026-06-28T14:00:01.000224,15.75247858,.0001019,53.1581,205.2461,69.1862,96.2465,0,U,69458,999,447,-.1852021E-3,-.28942E-3,0
STARLINK-37498,2026-127S,2026-06-28T12:12:50.408064,15.75289674,.00010526,53.1567,205.8253,113.3196,246.7935,0,U,69459,999,319,.95019927E-3,.147915E-2,0
STARLINK-37384,2026-127T,2026-06-28T13:24:35.802144,15.75264075,.0001044,53.1589,205.4201,77.4697,282.6440,0,U,69460,999,320,.53754654E-3,.82659E-3,0
STARLINK-37707,2026-127U,2026-06-28T13:18:31.987296,15.75295706,.00011082,53.1587,205.3906,79.2364,280.8781,0,U,69461,999,320,.10972291E-2,.171427E-2,0
STARLINK-37525,2026-127V,2026-06-28T14:00:01.000224,15.75250052,.00010705,53.1581,205.1925,65.7517,125.4326,0,U,69462,999,447,-.19940214E-3,-.31107E-3,0
STARLINK-37526,2026-127W,2026-06-28T14:00:01.000224,15.75252672,.00010478,53.1577,205.1435,84.2503,130.8155,0,U,69463,999,447,-.13230966E-3,-.20882E-3,0
STARLINK-37574,2026-127X,2026-06-28T13:11:59.908416,15.75259033,.00010493,53.1581,205.3595,93.6357,266.4783,0,U,69464,999,320,.60616347E-3,.93391E-3,0
STARLINK-37535,2026-127Y,2026-06-28T13:04:59.365056,15.75282764,.00011176,53.1575,205.3267,84.8116,275.3032,0,U,69465,999,320,.91650762E-3,.142512E-2,0
STARLINK-37583,2026-127Z,2026-06-28T14:00:01.000224,15.75139017,.00018285,53.1585,204.8242,76.7142,292.8876,0,U,69466,999,447,.46680002E-3,.71209E-3,0
STARLINK-37546,2026-127AA,2026-06-28T12:58:55.636608,15.75252725,.00011868,53.1573,205.2959,80.0320,280.0834,0,U,69467,999,320,.53766238E-3,.82636E-3,0
STARLINK-37532,2026-127AB,2026-06-28T13:52:14.038464,15.80966410,.00010106,53.1570,204.8047,134.3875,225.7231,0,U,69468,999,321,.98867832E-3,.199876E-2,0
STARLINK-37708,2026-127AC,2026-06-28T12:58:27.122880,15.75262299,.00010836,53.1571,205.2927,81.0912,279.0231,0,U,69469,999,320,.6065114E-3,.93459E-3,0
STARLINK-37686,2026-127AD,2026-06-28T12:52:23.483424,15.75254294,.00012186,53.1580,205.2656,88.1933,271.9227,0,U,69470,999,320,.43416104E-3,.66481E-3,0
STARLINK-37451,2026-127AE,2026-06-28T12:13:26.041152,15.80973408,.00011013,53.1571,205.0847,118.4874,241.6260,0,U,69471,999,320,.13194735E-2,.26925E-2,0
DTC TEST OBJECT A,2026-128A,2026-06-28T14:26:31.115328,15.56381195,.00100634,54.9931,252.2770,329.5277,30.5173,0,U,69472,999,300,.32362112E-3,.22832E-3,0
DTC TEST OBJECT B,2026-128B,2026-06-27T09:02:13.824960,15.56860342,.0009934,55.0021,257.9040,325.3113,34.7274,0,U,69473,999,280,.3356545E-3,.24134E-3,0
TJS-25,2026-129A,2026-06-28T15:51:35.293824,1.00272763,.00022127,5.9722,330.2730,296.7801,7.8586,0,U,69474,999,17,0,-.355E-5,0
STARLINK-37816,2026-131A,2026-06-28T13:59:12.146208,15.80842324,.00031809,97.2827,200.5211,79.2280,280.9346,0,U,69478,999,396,.96095798E-3,.18821E-2,0
STARLINK-37878,2026-131B,2026-06-28T14:07:16.300704,15.80873762,.00014604,97.2836,200.5142,109.9235,250.2190,0,U,69479,999,396,.71243251E-3,.138882E-2,0
STARLINK-37817,2026-131C,2026-06-28T00:16:38.611200,15.80943288,.00013817,97.2838,199.9216,152.6232,207.5109,0,U,69480,999,387,.15832225E-2,.316206E-2,0
STARLINK-37727,2026-131D,2026-06-28T13:55:57.569088,15.80828885,.00040028,97.2827,200.5234,59.7104,300.4560,0,U,69481,999,396,.10804676E-2,.212117E-2,0
